Company Name,Country,City,Address,Phone,Emails,Domain
D & E MARKETING (M) SDN BHD,,,,,"info@muarfurniture.org, dnemrkt@streamyx.com","https://welcome.muarfurniture.org/en/d-e-marketing-m-sdn-bhd-mfad1, https://www.malaysiadata.com/company/yqqgmk/d-e-marketing-m-sdn-bhd, https://m.newpages.com.my/en/company/223431/D_E_Marketing_(M)_Sdn_Bhd.html, https://my.soopage.com/company/D-E-MARKETING-M-SDN-BHD_sA.html, https://www.businesslist.my/company/54447/de-marketing-m-sdn-bhd, https://www.businesslist.my/company/84011/de-marketing-m-sdn-bhd, https://malaysia.bizin.asia/eng/d-e-marketing-m-sdn-bhd-1772, https://www.hotfrog.com.my/company/1100242238963712, https://www.zoominfo.com/c/d-e-marketing/547111216, https://businessreport.ctoscredit.com.my/oneoffreport_api/single-report/malaysia-company/0220058M/A-D-DIGITAL-MARKETING-M-SDN-BHD-"
ELLESIME SDN BHD,,,,"+60-12-275-9890, +60-12-275-9890, +60-12-275-9890, +60-12-275-9890, +60-12-275-9890, +60-12-275-9890","info@muarfurniture.org, officemanager@ellesime.com.my","https://welcome.muarfurniture.org/en/ellesime-sdn-bhd-mfae26, https://ellesime.business.site/?utm_source=gmb&utm_medium=referral, https://ellesime.business.site/, https://importkey.com/i/ellesime-sdn-bhd, https://www.importyeti.com/supplier/ellesime, https://www.jobstreet.com.my/ellesime-sdn-bhd-jobs, https://www.facebook.com/shiva.khadka.1650/, https://my.linkedin.com/in/nur-annisa-ngahadi-05b87a144, https://www.glassdoor.com/Job/muar-executive-assistant-jobs-SRCH_IL.0,4_IC2999258_KO5,24.htm, https://www.glassdoor.com/Job/tangkak-manufacturing-jobs-SRCH_IL.0,7_IC2998055_KO8,21.htm"
PEACOCK Wood,,,,,,"https://mrpeacockswood.com/, https://mrpeacockswood.com/collections/all, https://mrpeacockswood.com/collections/christmas-wood-blanks, https://mrpeacockswood.com/collections/the-basics, https://mrpeacockswood.com/collections/spring-cutouts, https://www.facebook.com/mrpeacock/, https://www.facebook.com/groups/203095238358198/posts/336727088328345/, https://www.pinterest.com/mrpeacockwoodcutouts/, https://www.pinterest.com/lubnashaukat/peacock-wood-carving/, https://www.etsy.com/market/peacock_wood_cut_out, https://www.etsy.com/market/wood_peacock, https://www.youtube.com/watch?v=Cl_wjnqO7vQ, https://www.youtube.com/watch?v=Cl_wjnqO7vQ"
@ Architect UK Ltd,,,,,"clientservices@riba.org, info@riba.org","https://www.architect.ltd.uk/, https://www.architect.ltd.uk/vacancies/, https://www.architect.ltd.uk/contact-us/, https://www.architect.ltd.uk/meet-the-team/, https://www.architect.ltd.uk/category/architect-uk-ltd/, https://uk.linkedin.com/company/-architect, https://find-and-update.company-information.service.gov.uk/company/08034653, https://www.instagram.com/architectukltd/?hl=en, https://www.houzz.co.uk/pro/architect-uk_ltd, https://twitter.com/architect_ltd?lang=en, https://find-an-architect.architecture.com/-architect-uk-ltd/brentwood, https://www.yell.com/biz/architect-uk-ltd-brentwood-4547687/"
10 Europe Limited,,,,,support@addressadda.com,"https://find-and-update.company-information.service.gov.uk/company/SC398826, https://find-and-update.company-information.service.gov.uk/company/SC398826/officers, https://uk.globaldatabase.com/company/10-europe-limited, https://suite.endole.co.uk/insight/company/SC398826-10-europe-limited, http://endole.co.uk/products/insight, http://suite.endole.co.uk/explorer/postcode/eh2, http://suite.endole.co.uk/explorer/postcode/eh2-4ah, http://companycheck.co.uk/company/SC398826/10-EUROPE-LIMITED, https://youcontrol.com.ua/en/catalog/gb-card/sc398826/, https://www.ltdcompanyinfo.co.uk/company/SC398826-10-europe-limited, https://www.192.com/atoz/business/edinburgh-eh2/architectural-services/10-europe-limited/c64e11b881235a4cf74ed5497ad6c7625cd3a2de/comp/, https://www.companiesintheuk.co.uk/ltd/10-europe, https://www.addressadda.com/united-kingdom/company/1/10-europe-limited-SC398826.php"
10architect Ltd,,,,,,"https://www.10architect.com/, https://www.10architect.com/jobs/job-opportunities/, https://www.10architect.com/contact/, https://www.10architect.com/10architect-healthcare/, https://www.10architect.com/author/alan-simpson/, https://www.10architect.com/, https://uk.linkedin.com/company/10architect, https://find-and-update.company-information.service.gov.uk/company/09999140, https://www.instagram.com/10architect/?hl=en, https://www.dnb.com/business-directory/company-profiles.10architect_limited.8d4ffee19b971726a2d7c15b2e7129ea.html, https://uk.globaldatabase.com/company/10architect-healthcare-ltd, https://www.zoominfo.com/c/10architect/466174936, https://newsnowgh.com/10-architect-limited-jobs-in-manchester-england-with-visa-sponsorship/"
1313 Global Limited,,,,,,"https://www.1313global.com/, https://uk.linkedin.com/company/1313-global-limited, https://www.dnb.com/business-directory/company-profiles.1313_global_limited.2e3991674796f176087daaf55a1fc607.html, https://find-and-update.company-information.service.gov.uk/company/07703132, https://rocketreach.co/1313-global-limited-profile_b4520ae2fc8ab1ab, https://www.zoominfo.com/c/global-limited-company/359003138, https://www.europages.co.uk/1313-GLOBAL-LIMITED/00000005390605-710824001.html, https://www.mobilesources.net/1313global/, https://uk.globaldatabase.com/company/1313-global-limited, https://www.signalhire.com/companies/1313-global-limited"
168 EXPRESS LTD,,,,,"info@168express.co.uk, info@mysite.com, info@168express.co.uk, hr@168express.co.uk, info@168express.co.uk","https://www.168express.co.uk/, https://www.168express.co.uk/copy-of-contact-%E8%81%94%E7%B3%BB, https://www.168express.co.uk/copy-of-join-us-%E5%8A%A0%E5%85%A5%E6%88%91%E4%BB%AC, https://find-and-update.company-information.service.gov.uk/company/09184897, http://www.168express.co.uk/, https://find-and-update.company-information.service.gov.uk/company/09184897/officers, https://www.dnb.com/business-directory/company-profiles.168_express_ltd.4660e6374e38e80fbcda7769de96c247.html, https://uk.linkedin.com/company/168-express-limited, https://www.glassdoor.com/Overview/Working-at-168-Express-EI_IE3267137.11,22.htm, https://youcontrol.com.ua/en/catalog/gb-card/09184897/, https://www.zoominfo.com/c/168-express/477784836, https://www.uktradeinfo.com/traders/168-express-ltd-222778?senderQueryString=commodities%3D080450"
168 H.K.R. Inter Trading,,,,0953748973,"credendata@creden.co, credendata@creden.co","https://www.matchlink.asia/business/page/Thailand/PATHUMTHANI/94094-168-h-k-r-intertrading-co-ltd.html, https://www.ltddir.com/companies/168-international-trading-limited/, https://www.bloomberg.com/profile/company/HRKIF:US, https://www.reuters.com/markets/companies/0480.HK, https://opencorporates.com/companies/th/0135554011429, https://data.creden.co/company/general/0135554011429, https://www.spglobal.com/marketintelligence/en/news-insights/trending/8jb_cjuqjes9q4u97xhavw2, https://www.marketwatch.com/investing/stock/480/company-profile?countrycode=hk&pid=227259903, https://markets.ft.com/data/equities/tearsheet/profile?s=480:HKG, https://www.marketscreener.com/quote/stock/HKR-INTERNATIONAL-LIMITED-50911248/finances/"
168 Timber,,,,", , 6787918956","janellcarter@compass.com, janellcarter@compass.com","https://www.zillow.com/homedetails/168-Timber-Gate-Dr-Lawrenceville-GA-30045/60831314_zpid/, https://www.zillow.com/homedetails/168-Timber-Creek-Ln-SW-Marietta-GA-30060/14291178_zpid/, https://www.compass.com/listing/168-timber-gate-drive-lawrenceville-ga-30045/1218098167040264897/, https://www.coldwellbankerhomes.com/ga/lawrenceville/168-timber-gate-dr/pid_51136574/, https://www.realty.com/home-listings/340559315/168-Timber-Gate-Drive-Lawrenceville-GA-30045, https://www.youtube.com/watch?v=yghZC4IOAY0, https://www.youtube.com/watch?v=yghZC4IOAY0, https://www.redfin.com/GA/Lawrenceville/168-Timber-Gate-Dr-30045/home/25088044, https://www.movoto.com/lawrenceville-ga/168-timber-gate-dr-lawrenceville-ga-30045/pid_8pan6lgmbh/, https://www.realtor.com/realestateandhomes-detail/166-168-Tall-Timber-Ct_Lawrenceville_GA_30046_M55862-04621"
17TAOUK TRADE LIMITED,,,,", , ","support@17taouk.com, support@17taouk.com, support@17taouk.com","http://17taouk.com/index.php?m=home&c=Lists&a=index&tid=30, http://17taouk.com/index.php?m=home&c=Lists&a=index&tid=23, https://find-and-update.company-information.service.gov.uk/company/10826453, https://youcontrol.com.ua/en/catalog/gb-card/10826453/, https://uk.globaldatabase.com/company/17taouk-trade-limited, https://pomanda.com/company/10826453/17taouk-trade-limited, https://www.aihitdata.com/company/01FAD800/17taouk-trade-limited/overview, http://companycheck.co.uk/company/10826453/17TAOUK-TRADE-LIMITED, https://www.eworldtrade.com/amp/c/17taouktradelimited/, https://www.europages.co.uk/17TAOUK-TRADE-LTD/00000005421178-757652001.html"
180 Paiboon Sawmill,,,,.0899091920,,"https://companieshouse.co.th/180-paiboon-sawmill-limited-partnership-0383559000341, https://www.dataforthai.com/company/0383559000341/, https://bizdirectasia.com/company/thailand/watthanakornparawood-company-limited-728634.html, https://bizdirectasia.com/company/thailand/trangtonyangparawood-company-limited-695407.html, https://www.zillow.com/homedetails/180-Sawmill-Rd-Landenberg-PA-19350/9208195_zpid/, http://tourismlibrary.tat.or.th/medias/SKTT0038/SKTT0038_fulltext.pdf, http://nrcu.gov.ua/go//soakritsinho.tk/boxvil98nrcugovua3"
1979Paragon Group,,,,"941-281-2987, 941-281-2987, 941-281-2987","info@elitehomegamerooms.com, info@elitehomegamerooms.com, info@elitehomegamerooms.com","https://pinside.com/pinball/machine/paragon, https://www.youtube.com/watch?v=f1MXBpUVyBQ, https://www.youtube.com/watch?v=f1MXBpUVyBQ, https://elitehomegamerooms.com/product/paragon-pinball-machine/, https://forums.arcade-museum.com/threads/paragon-pinball-1979-bally.13011/, https://forums.arcade-museum.com/threads/weird-problem-with-1979-paragon-bally-widebody.26118/, https://www.ebay.com/b/Paragon-Bedding/20444/bn_81063580, https://rec.games.pinball.narkive.com/o451EUTF/tech-bally-paragon-1979-flipper-issues, https://www.discogs.com/release/19130179-Various-Gospel-Songs-Of-The-Paragon-Publishing-Group, https://www.facebook.com/paragongroupwa/"
1stavenue.co.uk Ltd,,,,,"info@1stavenue.co.uk, croydon@1stavenue.co.uk, songapore@1stavenue.co.uk, info@1stavenue.co.uk, croydon@1stavenue.co.uk, songapore@1stavenue.co.uk","http://1stavenue.co.uk/, http://1stavenue.co.uk/careers/, http://1stavenue.co.uk/contact-us/, http://1stavenue.co.uk/want-to-rent/, http://1stavenue.co.uk/want-to-buy/, http://1stavenue.co.uk/careers/, http://1stavenue.co.uk/contact-us/, https://find-and-update.company-information.service.gov.uk/company/05913713, https://uk.linkedin.com/company/1stavenue-co-uk-limited, https://uk.linkedin.com/company/1st-avenue, https://www.crunchbase.com/organization/1st-avenue, https://www.propertymark.co.uk/company/1stavenue-co-uk-limited-2.html, https://www.signalhire.com/companies/1stavenue-co-uk-limited, https://suite.endole.co.uk/insight/company/05913713-1stavenue-co-uk-limited"
2 DAYS INDUSTRIES SDN BHD,,,,,"info@muarfurniture.org, teybockseng_84@hotmail.com, enquiry-my@experian.com","https://welcome.muarfurniture.org/en/2-days-industries-sdn-bhd-mfat20, https://businessreport.ctoscredit.com.my/oneoffreport_api/single-report/malaysia-company/0986246X/2-DAYS-INDUSTRIES-SDN-BHD-, https://buy.experian.com.my/index.php/search/Malaysia-Company/986246/2-DAYS-INDUSTRIES-SDN-BHD, https://malaysiadata.com/company/ldpdor/2-days-industries-sdn-bhd, https://www.mysbusiness.com/company/2-Days-Industries-Sdn-Bhd, https://malaysia.indeed.com/cmp/Next-Generation-Industries-Sdn-Bhd, https://malaysia.indeed.com/Guppy-Plastic-Industries-Sdn-Bhd-Penang,-Malaysia-jobs-in-Setapak, https://www.youtube.com/watch?v=dVNd3Ku-Y34, https://www.youtube.com/watch?v=dVNd3Ku-Y34, https://www.youtube.com/watch?v=-WBxr3hQNAg, https://www.youtube.com/watch?v=-WBxr3hQNAg"
2 P. and V. Trading,,,,,,"https://www.investopedia.com/terms/t/two-percent-rule.asp, https://www.investopedia.com/terms/p/putoption.asp, https://www.youtube.com/watch?v=3rmL8rpxQlk, https://www.youtube.com/watch?v=3rmL8rpxQlk, https://www.cs.princeton.edu/courses/archive/spr09/cos444/papers/myerson_satterthwaite83.pdf, https://www.jstor.org/stable/1913210, https://escapefromtarkov.fandom.com/wiki/Trading, https://www.traderjoes.com/home, https://www.lexisnexis.com/community/casebrief/p/casebrief-united-states-v-arch-trading-co, https://www.bestbuy.com/site/pokemon-trading-card-game-mew-v-box-exclusive/6516360.p?skuId=6516360"
200 Degrees Coffee Roasters,,,,,,"https://200degs.com/, https://200degs.com/collections/shop-online, https://200degs.com/pages/jobs, https://200degs.com/pages/our-coffee-shops, https://200degs.com/collections/coffee-beans, http://www.200degs.com/, https://www.instagram.com/200degs/?hl=en, https://www.bloomberg.com/profile/company/1561830D:LN, https://www.facebook.com/200Degs/, https://www.facebook.com/200DegreesBham/, https://ke.linkedin.com/posts/200-degrees-coffee-shops-ltd_recruitment-team-work-activity-7033829198162980865-lJuN, https://ke.linkedin.com/posts/200-degrees-coffee-shops-ltd_thankyou-basicbarista-coffeelover-activity-7033829125165318144-htKw, https://twitter.com/200Degs"
26 Elessa Dee,,,,"18557232747, 8477526444","customer-service@radaris.com, support@eomediagroup.com, office@bmeagle.com","https://www.tiktok.com/@elissadee, https://twitter.com/elissa_dee, https://radaris.com/p/Elissa/Dee/, https://www.goodreads.com/user/show/105046258-elissa-dee, https://www.morizzofuneralhome.com/m/obituaries/Mary-Dee/, https://www.bluemountaineagle.com/news/delana-elissa-145-dee-146-allen/article_ea532af8-7384-5943-a5e4-262963c6480e.html, https://www.tributearchive.com/obituaries/1767756/Mary-Dee, https://www.instagram.com/p/B8974x7piuJ/, https://nuwber.com/person/563a40cd05a684fe71a35523"
2KArchitects,,,,,,"https://2karchitects.com/, https://2karchitects.com/contact-us-1, https://2karchitects.com/about, https://2karchitects.com/services, https://2karchitects.com/residential, https://www.linkedin.com/company/2k-architects-planners-%26-engineers, https://www.2klandscapearchitecture.com/, https://www.instagram.com/2karchitects/?hl=en, https://archello.com/brand/2k-architects-planners-and-engineers, https://twitter.com/2karchitects, https://www.facebook.com/studio2Karchitects/, https://www.2ktechnical.com/"
2MS CONSTRUCTION LTD,,,,,"info@2msconstruction.com, info@2msconstruction.com, info@2msconstruction.com, info@2msconstruction.com, info@2msconstruction.com, info@2msconstruction.com, info@2msconstruction.com","https://www.2msconstruction.com/, https://www.2msconstruction.com/construction/construction-contact.htm, https://www.2msconstruction.com/construction/construction-about.htm, https://www.2msconstruction.com/construction/construction-projects.htm, https://www.2msconstruction.com/construction/tandc.htm, http://www.2msconstruction.com/, https://uk.linkedin.com/company/2ms-construction-ltd-, https://uk.linkedin.com/company/2ms-construction-ltd, https://find-and-update.company-information.service.gov.uk/company/06458364, https://www.dnb.com/business-directory/company-profiles.2ms_construction_ltd.220ae2f6a197d1c93e2159f20e73578f.html, https://uk.globaldatabase.com/company/2ms-construction-ltd, https://www.zoominfo.com/c/2ms-construction-ltd/348312077, https://newmarket.cylex-uk.co.uk/company/2ms-construction-ltd-18841280.html"
2xl Home,,,,"800295, 800295, 800295, 800295, 800295, 800%2029566, 800295, 800295","customersupport@2xlme.com, customersupport@2xlme.com, csoman@2xlme.com, customersupport@2xlme.com","https://2xlhome.com/, https://2xlhome.com/ae/bedroom, https://2xlhome.com/ae/living-room, https://2xlhome.com/ae/decor, https://2xlhome.com/om, https://www.2xlhome.com/, https://www.instagram.com/2xl.home/?hl=en, https://www.facebook.com/2XLHome/, https://m.facebook.com/2XLHome/photos/a.203573323019013/1568714496504882/, https://www.pinterest.com/2XLHome/, https://in.linkedin.com/company/2xl-furniture-&-home-decor?trk=public_profile_experience-item_profile-section-card_image-click, https://www.linkedin.com/company/retail-2xl-home-careers?trk=ppro_cprof, https://www.youtube.com/user/2XLFurniture"
3 Cherish,,,,"6167482699, 800-295-1543",,"https://www.dynamite.com/htmlfiles/viewProduct.html?PRO=C72513032441203011, https://comicalopinions.com/cherish-3-comic-review/, https://www.amazon.com/Cherish-3-Katana-Collins-ebook/dp/B0BPN22MMW, https://www.amazon.com/Cherish-Vows-Sherryl-Woods/dp/1501214764, https://howardmiller.com/products/cherish-iii-urn-800234, https://www.robbinsbrothers.com/0416407-cherish-14k-white-gold-diamond-engagement-ring-3-4-cttw1693467248, https://www.debbimooredesigns.com/create-and-cherish-book-collection-volume-3, https://sims.fandom.com/wiki/Cherish_Curious, https://www.ejpn-journal.com/article/S1090-3798(17)31479-4/pdf"
3 DAY'S FURNITURE SDN BHD,,,,,"info@muarfurniture.org, 3days9099@gmail.com","https://3daysfurniture.com/web/, https://3daysfurniture.com/web/dining/, https://3daysfurniture.com/web/contact-us/, https://3daysfurniture.com/web/about-us/, https://3daysfurniture.com/web/bed/, https://businessreport.ctoscredit.com.my/oneoffreport_api/single-report/malaysia-company/0779361U/3-DAY-S-FURNITURE-SDN-BHD-, https://panjiva.com/3-Day-s-Furniture-Sdn-Bhd/60765618, https://welcome.muarfurniture.org/en/3-days-furniture-sdn-bhd-mfat18, https://www.facebook.com/pages/category/industrials-company/3-Days-Furniture-Sdn-Bhd-139062820236095/photos/, https://www.facebook.com/pages/category/industrials-company/3-Days-Furniture-Sdn-Bhd-139062820236095/, https://www.zoominfo.com/c/day/462020238, https://www.tradewheel.com/co/-days-furniture-sdn-bhd-873066/about-us/"
3 S Furniture Industry,,,,"1-800-750-9660, 5138745553, 5137749591, 5133856600, 5135987200, 5137538555, 9372604477, 9374586640, 5028908686, 8595257911, 8595726800, 8122589678",,"https://www.3scorp.com/, https://www.3scorp.com/design-services.aspx, https://www.furnituretoday.com/furniture-manufacturing/u-s-manufacturing-nears-3-year-low-with-furniture-worsening-again/, https://www.ncpedia.org/furniture/industrial-age, https://straitsresearch.com/blog/top-10-best-furniture-companies-in-the-world, https://scholarworks.sfasu.edu/cgi/viewcontent.cgi?article=1075&context=forestry, https://furniturefair.net/blogs/lc/top-american-furniture-companies, https://www.furniturelandsouth.com/, https://p2infohouse.org/ref/26/25084.pdf"
33 Wood Center,,,,"1-866-321-2287, 1-866-321-2287, 1-866-321-2287, 1-866-321-2287, 1-866-321-2287","experts@justbats.com, experts@justbats.com, experts@justbats.com, experts@justbats.com, MBentley@pestworld.org","https://www.zillow.com/homedetails/33-Wood-Pl-Roswell-GA-30075/35819785_zpid/, https://www.zillow.com/homedetails/33-Wood-Dr-Dawsonville-GA-30534/87939808_zpid/, https://www.realtor.com/realestateandhomes-detail/33-Wood-Dr_Dawsonville_GA_30534_M66373-93400, https://www.atlantahistorycenter.com/buildings-and-grounds/wood-cabin/, https://www.justbats.com/products/baseball%20bats~wood%20baseball/length~33%20inch/, https://www.amazon.com/OKD-Farmhouse-Entertainment-Console-Television/dp/B093SVDHY9, https://www.redfin.com/FL/Palm-Coast/33-Wood-Center-Ln-32164/home/137133741, https://npmapestworld.org/resourcecenter/technical-resources/wood-destroying-insect-wdi-information/npma-33-wood-destroying-insect-inspection-form/, https://www.walmart.com/ip/CAIDI-33-Tall-Entertainment-Center-TV-Stand-for-TVs-up-to-70-Tall-Wood-Metal-TV-Table-Stand-with-Media-Console-Cabinet-Storage-Oak-Rustic/2907110518"
3A composites,,,,,"info.usa@3acomposites.com, info.usa@3acomposites.com, info.usa@3acomposites.com, info.usa@3acomposites.com, info.usa@3acomposites.com, info.usa@3acomposites.com, info.usa@3acomposites.com, info.usa@3acomposites.com, info.usa@3acomposites.com, info.usa@3acomposites.com, info.usa@3acomposites.com, info.usa@3acomposites.com, info.usa@3acomposites.com, info.usa@3acomposites.com, info.usa@3acomposites.com, info.usa@3acomposites.com, sins.humanresources@3acomposites.com, sins.humanresources@3acomposites.com, sins.humanresources@3acomposites.com, sins.humanresources@3acomposites.com, sins.humanresources@3acomposites.com, sins.humanresources@3acomposites.com","https://3acompositesusa.com/, https://3acompositesusa.com/graphic-display-divisions.html, https://3acompositesusa.com/contact-us.html, https://3acompositesusa.com/management-team.html, https://3acompositesusa.com/company-profile.html, https://www.3acomposites.com/, http://www.3acomposites.com/, https://www.3acomposites.com/company/about-us, https://www.3accorematerials.com/, https://www.indeed.com/cmp/3a-Composites-USA/reviews?fcountry=US&floc=Glasgow%2C+KY, https://www.glassdoor.com/Overview/Working-at-3A-Composites-EI_IE354476.11,24.htm, https://www.linkedin.com/company/3ac-composites, https://www.3accorematerials.com/en/about-us"
3A GLOBAL TIMBER ASSOCIATES LLP,,,,,,"https://www.zaubacorp.com/company/3A-GLOBAL-TIMBER-ASSOCIATES-LLP/AAP-7635, https://iaccess.dnb.co.in/3a-global-timber-associates-llp/company/aap-7635, https://www.companydetails.in/company/3a-global-timber-associates-llp, https://www.quickcompany.in/company/3a-global-timber-associates-llp, https://3aglobalgroup.com/, https://www.sec.gov/Archives/edgar/data/736260/000092701603001209/dex211.htm, https://us.eversheds-sutherland.com/NewsCommentary/Press-Releases/254426/Eversheds-Sutherland-Advises-on-One-of-the-Largest-Private-Conservation-Focused-Forest-Investments-in-US-History, https://www.forestinvest.com/about/, https://ofic.com/private-forestland-closures/, https://www.linkedin.com/company/the-lyme-timber-company"
4Homes,,,,"980-314-8400, 980-314-4663, 980-314-8400","DCR@MeckNC.gov, 4Homes@mecknc.gov, 4homes@mecknc.gov, DCR@MeckNC.gov","https://www.4homes.ae/, https://www.4homes.ae/contact-us/, https://www.4homes.ae/about-us/, https://www.4homes.ae/business/tavola/, https://www.4homes.ae/#product_categories, https://www.4homes.com/, https://4homes.ltd.uk/, https://4homes.ltd.uk/contact/, https://4homes.ltd.uk/case_studies, https://4homes.ltd.uk/our-complete-service-7-stage-approach/, https://4homes.ltd.uk/inspiration_type/paint-inspiration/, https://www.linkedin.com/in/4homes-lending-02853895, https://twitter.com/4homes?lang=en, https://all-4homes.com/, https://www.glassdoor.com/Overview/Working-at-4Homes-EI_IE594172.11,17.htm, https://dcr.mecknc.gov/Housing/HOMES, https://www.instagram.com/explore/tags/4homes/?hl=en"
4M LONDON LIMITED,,,,,,
545 Parawood,,,,,,
6a ltd.,,,,,,
72 Goldenwood,,,,,,
79 furniture,,,,,,
888 Furniture,,,,,,
9 good wood,,,,,,
